{"type": "FeatureCollection", "features": [ {"type": "Feature", "properties": {"norad_id": 36701, "name": "FENGYUN 1C DEB", "group": "fengyun-1c-debris", "lat": -69.66391107670663, "lon": -34.20950159251231, "alt_km": 812.5820256945344, "timestamp": "2025-12-02T23:34:15.804986+00:00", "meta": {"OBJECT_NAME": "FENGYUN 1C DEB", "OBJECT_ID": "1999-025DZX", "EPOCH": "2025-11-30T15:53:09.500928", "MEAN_MOTION": 13.71224206, "ECCENTRICITY": 0.02612081, "INCLINATION": 102.7441, "RA_OF_ASC_NODE": 285.087, "ARG_OF_PERICENTER": 280.9421, "MEAN_ANOMALY": 76.243, "EPHEMERIS_TYPE": 0, "CLASSIFICATION_TYPE": "U", "NORAD_CAT_ID": 36701, "ELEMENT_SET_NO": 999, "REV_AT_EPOCH": 60973, "BSTAR": 0.0027853288, "MEAN_MOTION_DOT": 3.111e-05, "MEAN_MOTION_DDOT": 0}, "tle": {"line1": "1 36701U 99025DZX 25334.66191552  .00003111  00000+0  27853-2 0  9996", "line2": "2 36701 102.7441 285.0870 0261208 280.9421  76.2430 13.71224206609738"}}, "geometry": {"type": "Point", "coordinates": [-34.20950159251231, -69.66391107670663]}}, {"type": "Feature", "properties": {"norad_id": 36707, "name": "FENGYUN 1C DEB", "group": "fengyun-1c-debris", "lat": 45.12885584575534, "lon": 14.340868989794338, "alt_km": 838.7058249302663, "timestamp": "2025-12-02T23:34:15.804996+00:00", "meta": {"OBJECT_NAME": "FENGYUN 1C DEB", "OBJECT_ID": "1999-025EAD", "EPOCH": "2025-11-29T08:56:27.364416", "MEAN_MOTION": 14.17242716, "ECCENTRICITY": 0.00499722, "INCLINATION": 98.7542, "RA_OF_ASC_NODE": 19.691, "ARG_OF_PERICENTER": 159.2794, "MEAN_ANOMALY": 201.0422, "EPHEMERIS_TYPE": 0, "CLASSIFICATION_TYPE": "U", "NORAD_CAT_ID": 36707, "ELEMENT_SET_NO": 999, "REV_AT_EPOCH": 63890, "BSTAR": 0.0007860803, "MEAN_MOTION_DOT": 1.563e-05, "MEAN_MOTION_DDOT": 0}, "tle": {"line1": "1 36707U 99025EAD 25333.37253894  .00001563  00000+0  78608-3 0  9991", "line2": "2 36707  98.7542  19.6910 0049972 159.2794 201.0422 14.17242716638906"}}, "geometry": {"type": "Point", "coordinates": [14.340868989794338, 45.12885584575534]}}, {"type": "Feature", "properties": {"norad_id": 36710, "name": "FENGYUN 1C DEB", "group": "fengyun-1c-debris", "lat": -74.44466516125159, "lon": -177.82060776080502, "alt_km": 700.3727216032785, "timestamp": "2025-12-02T23:34:15.805017+00:00", "meta": {"OBJECT_NAME": "FENGYUN 1C DEB", "OBJECT_ID": "1999-025EAG", "EPOCH": "2025-12-01T21:32:31.905600", "MEAN_MOTION": 14.49639055, "ECCENTRICITY": 0.0067671, "INCLINATION": 98.3816, "RA_OF_ASC_NODE": 33.083, "ARG_OF_PERICENTER": 214.3646, "MEAN_ANOMALY": 145.3162, "EPHEMERIS_TYPE": 0, "CLASSIFICATION_TYPE": "U", "NORAD_CAT_ID": 36710, "ELEMENT_SET_NO": 999, "REV_AT_EPOCH": 64796, "BSTAR": 0.0017482882, "MEAN_MOTION_DOT": 6.877e-05, "MEAN_MOTION_DDOT": 0}, "tle": {"line1": "1 36710U 99025EAG 25335.89759150  .00006877  00000+0  17483-2 0  9996", "line2": "2 36710  98.3816  33.0830 0067671 214.3646 145.3162 14.49639055647964"}}, "geometry": {"type": "Point", "coordinates": [-177.82060776080502, -74.44466516125159]}}, {"type": "Feature", "properties": {"norad_id": 36711, "name": "FENGYUN 1C DEB", "group": "fengyun-1c-debris", "lat": 31.187789954473327, "lon": -12.940821141064026, "alt_km": 814.9746586235851, "timestamp": "2025-12-02T23:34:15.805028+00:00", "meta": {"OBJECT_NAME": "FENGYUN 1C DEB", "OBJECT_ID": "1999-025EAH", "EPOCH": "2025-11-29T18:49:32.545344", "MEAN_MOTION": 14.42080972, "ECCENTRICITY": 0.01000486, "INCLINATION": 100.8061, "RA_OF_ASC_NODE": 349.6584, "ARG_OF_PERICENTER": 244.1532, "MEAN_ANOMALY": 114.9305, "EPHEMERIS_TYPE": 0, "CLASSIFICATION_TYPE": "U", "NORAD_CAT_ID": 36711, "ELEMENT_SET_NO": 999, "REV_AT_EPOCH": 64124, "BSTAR": 0.0024295961, "MEAN_MOTION_DOT": 8.419e-05, "MEAN_MOTION_DDOT": 0}, "tle": {"line1": "1 36711U 99025EAH 25333.78440446  .00008419  00000+0  24296-2 0  9992", "line2": "2 36711 100.8061 349.6584 0100048 244.1532 114.9305 14.42080972641246"}}, "geometry": {"type": "Point", "coordinates": [-12.940821141064026, 31.187789954473327]}}, {"type": "Feature", "properties": {"norad_id": 36716, "name": "FENGYUN 1C DEB", "group": "fengyun-1c-debris", "lat": 16.572597028186145, "lon": 78.90423027405743, "alt_km": 937.2773732944079, "timestamp": "2025-12-02T23:34:15.805038+00:00", "meta": {"OBJECT_NAME": "FENGYUN 1C DEB", "OBJECT_ID": "1999-025EAN", "EPOCH": "2025-12-01T12:10:52.167072", "MEAN_MOTION": 13.88402235, "ECCENTRICITY": 0.01480738, "INCLINATION": 99.2271, "RA_OF_ASC_NODE": 254.6729, "ARG_OF_PERICENTER": 259.27, "MEAN_ANOMALY": 99.1757, "EPHEMERIS_TYPE": 0, "CLASSIFICATION_TYPE": "U", "NORAD_CAT_ID": 36716, "ELEMENT_SET_NO": 999, "REV_AT_EPOCH": 62775, "BSTAR": 0.00027607532, "MEAN_MOTION_DOT": 3.16e-06, "MEAN_MOTION_DDOT": 0}, "tle": {"line1": "1 36716U 99025EAN 25335.50754823  .00000316  00000+0  27608-3 0  9995", "line2": "2 36716  99.2271 254.6729 0148073 259.2700  99.1757 13.88402235627759"}}, "geometry": {"type": "Point", "coordinates": [78.90423027405743, 16.572597028186145]}}, {"type": "Feature", "properties": {"norad_id": 36724, "name": "FENGYUN 1C DEB", "group": "fengyun-1c-debris", "lat": -0.21348784647608016, "lon": -172.08640597225082, "alt_km": 757.9547353590197, "timestamp": "2025-12-02T23:34:15.805049+00:00", "meta": {"OBJECT_NAME": "FENGYUN 1C DEB", "OBJECT_ID": "1999-025EAW", "EPOCH": "2025-12-02T00:57:35.994816", "MEAN_MOTION": 14.25124364, "ECCENTRICITY": 0.01035854, "INCLINATION": 99.4708, "RA_OF_ASC_NODE": 6.9331, "ARG_OF_PERICENTER": 227.7842, "MEAN_ANOMALY": 162.27, "EPHEMERIS_TYPE": 0, "CLASSIFICATION_TYPE": "U", "NORAD_CAT_ID": 36724, "ELEMENT_SET_NO": 999, "REV_AT_EPOCH": 57320, "BSTAR": 0.0021080641, "MEAN_MOTION_DOT": 5.184e-05, "MEAN_MOTION_DDOT": 0}, "tle": {"line1": "1 36724U 99025EAW 25336.03999994  .00005184  00000+0  21081-2 0  9999", "line2": "2 36724  99.4708   6.9331 0103585 227.7842 162.2700 14.25124364573204"}}, "geometry": {"type": "Point", "coordinates": [-172.08640597225082, -0.21348784647608016]}}, {"type": "Feature", "properties": {"norad_id": 36729, "name": "FENGYUN 1C DEB", "group": "fengyun-1c-debris", "lat": 38.69043702227919, "lon": -47.954302586770396, "alt_km": 869.0766394643979, "timestamp": "2025-12-02T23:34:15.805059+00:00", "meta": {"OBJECT_NAME": "FENGYUN 1C DEB", "OBJECT_ID": "1999-025EBB", "EPOCH": "2025-12-01T04:49:03.522144", "MEAN_MOTION": 14.10297876, "ECCENTRICITY": 0.0045518, "INCLINATION": 98.7068, "RA_OF_ASC_NODE": 317.3705, "ARG_OF_PERICENTER": 289.5642, "MEAN_ANOMALY": 70.0617, "EPHEMERIS_TYPE": 0, "CLASSIFICATION_TYPE": "U", "NORAD_CAT_ID": 36729, "ELEMENT_SET_NO": 999, "REV_AT_EPOCH": 87089, "BSTAR": 0.0003119, "MEAN_MOTION_DOT": 5.16e-06, "MEAN_MOTION_DDOT": 0}, "tle": {"line1": "1 36729U 99025EBB 25335.20073521  .00000516  00000+0  31190-3 0  9998", "line2": "2 36729  98.7068 317.3705 0045518 289.5642  70.0617 14.10297876870890"}}, "geometry": {"type": "Point", "coordinates": [-47.954302586770396, 38.69043702227919]}}, {"type": "Feature", "properties": {"norad_id": 36734, "name": "FENGYUN 1C DEB", "group": "fengyun-1c-debris", "lat": -24.131555290821023, "lon": 27.655938014966104, "alt_km": 810.9951978795561, "timestamp": "2025-12-02T23:34:15.805070+00:00", "meta": {"OBJECT_NAME": "FENGYUN 1C DEB", "OBJECT_ID": "1999-025EBG", "EPOCH": "2025-12-02T01:47:23.275680", "MEAN_MOTION": 14.25724039, "ECCENTRICITY": 0.00354571, "INCLINATION": 99.0569, "RA_OF_ASC_NODE": 22.6212, "ARG_OF_PERICENTER": 249.1772, "MEAN_ANOMALY": 110.5608, "EPHEMERIS_TYPE": 0, "CLASSIFICATION_TYPE": "U", "NORAD_CAT_ID": 36734, "ELEMENT_SET_NO": 999, "REV_AT_EPOCH": 82582, "BSTAR": 0.0018421296, "MEAN_MOTION_DOT": 4.356e-05, "MEAN_MOTION_DDOT": 0}, "tle": {"line1": "1 36734U 99025EBG 25336.07457495  .00004356  00000+0  18421-2 0  9993", "line2": "2 36734  99.0569  22.6212 0035457 249.1772 110.5608 14.25724039825827"}}, "geometry": {"type": "Point", "coordinates": [27.655938014966104, -24.131555290821023]}}, {"type": "Feature", "properties": {"norad_id": 36736, "name": "FENGYUN 1C DEB", "group": "fengyun-1c-debris", "lat": 80.82174903260153, "lon": -23.244413700119505, "alt_km": 792.0836955214181, "timestamp": "2025-12-02T23:34:15.805080+00:00", "meta": {"OBJECT_NAME": "FENGYUN 1C DEB", "OBJECT_ID": "1999-025EBJ", "EPOCH": "2025-11-30T10:30:26.479872", "MEAN_MOTION": 14.25310583, "ECCENTRICITY": 0.00614987, "INCLINATION": 98.8074, "RA_OF_ASC_NODE": 47.8499, "ARG_OF_PERICENTER": 174.9248, "MEAN_ANOMALY": 185.2568, "EPHEMERIS_TYPE": 0, "CLASSIFICATION_TYPE": "U", "NORAD_CAT_ID": 36736, "ELEMENT_SET_NO": 999, "REV_AT_EPOCH": 88440, "BSTAR": 0.001858623, "MEAN_MOTION_DOT": 4.421e-05, "MEAN_MOTION_DDOT": 0}, "tle": {"line1": "1 36736U 99025EBJ 25334.43780648  .00004421  00000+0  18586-2 0  9997", "line2": "2 36736  98.8074  47.8499 0061498 174.9248 185.2568 14.25310583884408"}}, "geometry": {"type": "Point", "coordinates": [-23.244413700119505, 80.82174903260153]}}, {"type": "Feature", "properties": {"norad_id": 36743, "name": "FENGYUN 1C DEB", "group": "fengyun-1c-debris", "lat": -9.639030897958865, "lon": 26.803801058880307, "alt_km": 777.780713807686, "timestamp": "2025-12-02T23:34:15.805091+00:00", "meta": {"OBJECT_NAME": "FENGYUN 1C DEB", "OBJECT_ID": "1999-025EBR", "EPOCH": "2025-12-02T08:29:31.864992", "MEAN_MOTION": 14.2899004, "ECCENTRICITY": 0.0047921, "INCLINATION": 98.6575, "RA_OF_ASC_NODE": 24.6973, "ARG_OF_PERICENTER": 43.9124, "MEAN_ANOMALY": 316.585, "EPHEMERIS_TYPE": 0, "CLASSIFICATION_TYPE": "U", "NORAD_CAT_ID": 36743, "ELEMENT_SET_NO": 999, "REV_AT_EPOCH": 60589, "BSTAR": 0.001564, "MEAN_MOTION_DOT": 3.963e-05, "MEAN_MOTION_DDOT": 0}, "tle": {"line1": "1 36743U 99025EBR 25336.35384103  .00003963  00000+0  15640-2 0  9992", "line2": "2 36743  98.6575  24.6973 0047921  43.9124 316.5850 14.28990040605895"}}, "geometry": {"type": "Point", "coordinates": [26.803801058880307, -9.639030897958865]}}]}